$$SOE
2459580.500000000, A.D. 2022-Jan-01 00:00:00.0000, -2.221424958193235E+07, -1.852162829599640E+08, 6.047324227721687E+07,
2459587.500000000, A.D. 2022-Jan-08 00:00:00.0000, -3.794128247286923E+06, -1.798953454245365E+08, 6.398749250957912E+07,
2459594.500000000, A.D. 2022-Jan-15 00:00:00.0000, 1.465080437203314E+07, -1.733219770767812E+08, 6.705577525676841E+07,
2459601.500000000, A.D. 2022-Jan-22 00:00:00.0000, 3.298451900516010E+07, -1.654517356604244E+08, 6.962182795769061E+07,
2459608.500000000, A.D. 2022-Jan-29 00:00:00.0000, 5.105379951833425E+07, -1.562626751955858E+08, 7.163245494622476E+07,
2459615.500000000, A.D. 2022-Feb-05 00:00:00.0000, 6.869280388885233E+07, -1.457607614517269E+08, 7.304083503612566E+07,
2459622.500000000, A.D. 2022-Feb-12 00:00:00.0000, 8.572988739865209E+07, -1.339838765177782E+08, 7.380998525516967E+07,
2459629.500000000, A.D. 2022-Feb-19 00:00:00.0000, 1.019962246924399E+08, -1.210034523596055E+08, 7.391589796341577E+07,
2459636.500000000, A.D. 2022-Feb-26 00:00:00.0000, 1.173352516294611E+08, -1.069230490150017E+08, 7.334981471170729E+07,
2459643.500000000, A.D. 2022-Mar-05 00:00:00.0000, 1.316115939405604E+08, -9.187373696800792E+07, 7.211919199631405E+07,
2459650.500000000, A.D. 2022-Mar-12 00:00:00.0000, 1.447181269611955E+08, -7.600681290273915E+07, 7.024714993472324E+07,
2459657.500000000, A.D. 2022-Mar-19 00:00:00.0000, 1.565801704678386E+08, -5.948494237891258E+07, 6.777050548534979E+07,
2459664.500000000, A.D. 2022-Mar-26 00:00:00.0000, 1.671564473586812E+08, -4.247307863033791E+07, 6.473676886643158E+07,
2459671.500000000, A.D. 2022-Apr-02 00:00:00.0000, 1.764370958640378E+08, -2.513038748627524E+07, 6.120063384053828E+07,
2459678.500000000, A.D. 2022-Apr-09 00:00:00.0000, 1.844395052419751E+08, -7.604007595526937E+06, 5.722048922683402E+07,
2459685.500000000, A.D. 2022-Apr-16 00:00:00.0000, 1.912029389140910E+08, 9.975025926259236E+06, 5.285535521201213E+07,
2459692.500000000, A.D. 2022-Apr-23 00:00:00.0000, 1.967828399070004E+08, 2.749379829883505E+07, 4.816247216748023E+07,
2459699.500000000, A.D. 2022-Apr-30 00:00:00.0000, 2.012454872356038E+08, 4.485784509581684E+07, 4.319560427631165E+07,
2459706.500000000, A.D. 2022-May-07 00:00:00.0000, 2.046634060806556E+08, 6.199027420518628E+07, 3.800400158423032E+07,
2459713.500000000, A.D. 2022-May-14 00:00:00.0000, 2.071116963454129E+08, 7.883014581707944E+07, 3.263190119806782E+07,
2459720.500000000, A.D. 2022-May-21 00:00:00.0000, 2.086652731113295E+08, 9.533048967016581E+07, 2.711842960109789E+07,
2459727.500000000, A.D. 2022-May-28 00:00:00.0000, 2.093969169223587E+08, 1.114562318701598E+08, 2.149777715212715E+07,
2459734.500000000, A.D. 2022-Jun-04 00:00:00.0000, 2.093759908301057E+08, 1.271822067464668E+08, 1.579953876892816E+07,
2459741.500000000, A.D. 2022-Jun-11 00:00:00.0000, 2.086676755039267E+08, 1.424913522393356E+08, 1.004914118291041E+07,
2459748.500000000, A.D. 2022-Jun-18 00:00:00.0000, 2.073325879441760E+08, 1.573731324405228E+08, 4.268301258864447E+06,
2459755.500000000, A.D. 2022-Jun-25 00:00:00.0000, 2.054266719634003E+08, 1.718221954280629E+08, -1.524520622421436E+06,
2459762.500000000, A.D. 2022-Jul-02 00:00:00.0000, 2.030012726743800E+08, 1.858372538320592E+08, -7.313693578832567E+06,
2459769.500000000, A.D. 2022-Jul-09 00:00:00.0000, 2.001033292083459E+08, 1.994201653517126E+08, -1.308602690761957E+07,
2459776.500000000, A.D. 2022-Jul-16 00:00:00.0000, 1.967756375039169E+08, 2.125751874195065E+08, -1.883042282942671E+07,
2459783.500000000, A.D. 2022-Jul-23 00:00:00.0000, 1.930571470579291E+08, 2.253083791667107E+08, -2.453757134413629E+07,
2459790.500000000, A.D. 2022-Jul-30 00:00:00.0000, 1.889832686029446E+08, 2.376271224974001E+08, -3.019968527872577E+07,
2459797.500000000, A.D. 2022-Aug-06 00:00:00.0000, 1.845861811556300E+08, 2.495397410313019E+08, -3.581027234634250E+07,
2459804.500000000, A.D. 2022-Aug-13 00:00:00.0000, 1.798951281215152E+08, 2.610552009360234E+08, -4.136393994850822E+07,
2459811.500000000, A.D. 2022-Aug-20 00:00:00.0000, 1.749366953495250E+08, 2.721828774585139E+08, -4.685622858945249E+07,
2459818.500000000, A.D. 2022-Aug-27 00:00:00.0000, 1.697350683673174E+08, 2.829323734923189E+08, -5.228347013510834E+07,
2459825.500000000, A.D. 2022-Sep-03 00:00:00.0000, 1.643122680049852E+08, 2.933133795214555E+08, -5.764266744220415E+07,
2459832.500000000, A.D. 2022-Sep-10 00:00:00.0000, 1.586883646198200E+08, 3.033355664352375E+08, -6.293139223998315E+07,
2459839.500000000, A.D. 2022-Sep-17 00:00:00.0000, 1.528816717950065E+08, 3.130085043554979E+08, -6.814769853475489E+07,
2459846.500000000, A.D. 2022-Sep-24 00:00:00.0000, 1.469089208320696E+08, 3.223416019358999E+08, -7.329004918659033E+07,
2459853.500000000, A.D. 2022-Oct-01 00:00:00.0000, 1.407854177465181E+08, 3.313440617298965E+08, -7.835725366130432E+07,
2459860.500000000, A.D. 2022-Oct-08 00:00:00.0000, 1.345251847189775E+08, 3.400248486611127E+08, -8.334841523381744E+07,
2459867.500000000, A.D. 2022-Oct-15 00:00:00.0000, 1.281410866048434E+08, 3.483926700193697E+08, -8.826288600332634E+07,
2459874.500000000, A.D. 2022-Oct-22 00:00:00.0000, 1.216449417867804E+08, 3.564559630892427E+08, -9.310022842453681E+07,
2459881.500000000, A.D. 2022-Oct-29 00:00:00.0000, 1.150476212364546E+08, 3.642228860728288E+08, -9.786018275759298E+07,
2459888.500000000, A.D. 2022-Nov-05 00:00:00.0000, 1.083591391523594E+08, 3.717013136686532E+08, -1.025426395342360E+08,
2459895.500000000, A.D. 2022-Nov-12 00:00:00.0000, 1.015887343619361E+08, 3.788988374755706E+08, -1.071476160203674E+08,
2459902.500000000, A.D. 2022-Nov-19 00:00:00.0000, 9.474494280592240E+07, 3.858227693990360E+08, -1.116752360660078E+08,
2459909.500000000, A.D. 2022-Nov-26 00:00:00.0000, 8.783566229754844E+07, 3.924801469781901E+08, -1.161257128764256E+08,
2459916.500000000, A.D. 2022-Dec-03 00:00:00.0000, 8.086821055340372E+07, 3.988777400831845E+08, -1.204993342798395E+08,
2459923.500000000, A.D. 2022-Dec-10 00:00:00.0000, 7.384937728034140E+07, 4.050220585776556E+08, -1.247964501221788E+08,
2459930.500000000, A.D. 2022-Dec-17 00:00:00.0000, 6.678547099842890E+07, 4.109193605895143E+08, -1.290174614788058E+08,
2459937.500000000, A.D. 2022-Dec-24 00:00:00.0000, 5.968236128962786E+07, 4.165756610658202E+08, -1.331628114329916E+08,
2459944.500000000, A.D. 2022-Dec-31 00:00:00.0000, 5.254551734347364E+07, 4.219967405195730E+08, -1.372329772208640E+08,
2459951.500000000, A.D. 2023-Jan-07 00:00:00.0000, 4.538004337767629E+07, 4.271881547779043E+08, -1.412284634861863E+08,
2459958.500000000, A.D. 2023-Jan-14 00:00:00.0000, 3.819070937099824E+07, 4.321552461108109E+08, -1.451497962631298E+08,
2459965.500000000, A.D. 2023-Jan-21 00:00:00.0000, 3.098197682034297E+07, 4.369031524765810E+08, -1.489975177485121E+08,
2459972.500000000, A.D. 2023-Jan-28 00:00:00.0000, 2.375802350373636E+07, 4.414368146229191E+08, -1.527721820989912E+08,
2459979.500000000, A.D. 2023-Feb-04 00:00:00.0000, 1.652276732097005E+07, 4.457609840252706E+08, -1.564743518884048E+08,
2459986.500000000, A.D. 2023-Feb-11 00:00:00.0000, 9.279887665537082E+06, 4.498802314340252E+08, -1.601045949908612E+08,
2459993.500000000, A.D. 2023-Feb-18 00:00:00.0000, 2.032844484035759E+06, 4.537989551837218E+08, -1.636634818773302E+08,
2460000.500000000, A.D. 2023-Feb-25 00:00:00.0000, -5.215104519598912E+06, 4.575213890882380E+08, -1.671515833001823E+08,
2460007.500000000, A.D. 2023-Mar-04 00:00:00.0000, -1.246088825975361E+07, 4.610516099335673E+08, -1.705694683196734E+08,
2460014.500000000, A.D. 2023-Mar-11 00:00:00.0000, -1.970160804189228E+07, 4.643935445666189E+08, -1.739177026285507E+08,
2460021.500000000, A.D. 2023-Mar-18 00:00:00.0000, -2.693452454798050E+07, 4.675509765322254E+08, -1.771968471428841E+08,
2460028.500000000, A.D. 2023-Mar-25 00:00:00.0000, -3.415704570905483E+07, 4.705275522155661E+08, -1.804074568465281E+08,
2460035.500000000, A.D. 2023-Apr-01 00:00:00.0000, -4.136671493196853E+07, 4.733267868901696E+08, -1.835500798655947E+08,
2460042.500000000, A.D. 2023-Apr-08 00:00:00.0000, -4.856120019918774E+07, 4.759520719054719E+08, -1.866252565905547E+08,
2460049.500000000, A.D. 2023-Apr-15 00:00:00.0000, -5.573828629191509E+07, 4.784066819177405E+08, -1.896335186996561E+08,
2460056.500000000, A.D. 2023-Apr-22 00:00:00.0000, -6.289586825056864E+07, 4.806937791225562E+08, -1.925753884792127E+08,
2460063.500000000, A.D. 2023-Apr-29 00:00:00.0000, -7.003194326946117E+07, 4.828164167541943E+08, -1.954513784919971E+08,
2460070.500000000, A.D. 2023-May-06 00:00:00.0000, -7.714460272291330E+07, 4.847775436461512E+08, -1.982619912739737E+08,
2460077.500000000, A.D. 2023-May-13 00:00:00.0000, -8.423202524237983E+07, 4.865800089709252E+08, -2.010077190306836E+08,
2460084.500000000, A.D. 2023-May-20 00:00:00.0000, -9.129247055950575E+07, 4.882265666790236E+08, -2.036890433839929E+08,
2460091.500000000, A.D. 2023-May-27 00:00:00.0000, -9.832427387603480E+07, 4.897198796186766E+08, -2.063064351799530E+08,
2460098.500000000, A.D. 2023-Jun-03 00:00:00.0000, -1.053258406619945E+08, 4.910625233729139E+08, -2.088603543528169E+08,
2460105.500000000, A.D. 2023-Jun-10 00:00:00.0000, -1.122956418214567E+08, 4.922569898106046E+08, -2.113512498415066E+08,
2460112.500000000, A.D. 2023-Jun-17 00:00:00.0000, -1.192322091035353E+08, 4.933056903013692E+08, -2.137795595655360E+08,
2460119.500000000, A.D. 2023-Jun-24 00:00:00.0000, -1.261341304086079E+08, 4.942109586596386E+08, -2.161457104799497E+08,
2460126.500000000, A.D. 2023-Jul-01 00:00:00.0000, -1.330000447095338E+08, 4.949750546554066E+08, -2.184501186604484E+08,
2460133.500000000, A.D. 2023-Jul-08 00:00:00.0000, -1.398286382369961E+08, 4.956001689230407E+08, -2.206931891943995E+08,
2460140.500000000, A.D. 2023-Jul-15 00:00:00.0000, -1.466186431825524E+08, 4.960884264466360E+08, -2.228753159881330E+08,
2460147.500000000, A.D. 2023-Jul-22 00:00:00.0000, -1.533688353778179E+08, 4.964418875948086E+08, -2.249968818942501E+08,
$$EOE